USA 159 (DSP 21)        
1 26880U 01033A   21018.38194435 -.00000298  00000-0  00000-0 0  9990
2 26880  10.9633  28.9775 0000107  59.0867 118.3851  1.00272685 13157
INTELSAT 902 (IS-902)   
1 26900U 01039A   21018.38847778 -.00000282  00000-0  00000-0 0  9997
2 26900   1.1345  94.5578 0003065 211.1547 262.0453  1.00272643 70909
USA 164 (MILSTAR-2 3)   
1 27168U 02001A   21018.22479852  .00000099  00000-0  00000-0 0  9996
2 27168   8.9816  31.0694 0002375 273.5326 273.0775  1.00273315 13148
ECHOSTAR 7              
1 27378U 02006A   21018.66187566  .00000001  00000-0  00000+0 0  9992
2 27378   0.0429 260.1614 0001791  74.8413 262.7145  1.00272683 69257
INTELSAT 904 (IS-904)   
1 27380U 02007A   21018.39257788 -.00000214  00000-0  00000-0 0  9998
2 27380   1.9729  91.2566 0003359 216.4135 282.1373  1.00272642 31959
TDRS 9                  
1 27389U 02011A   21018.46288740 -.00000289  00000-0  00000-0 0  9994
2 27389   7.9371  65.4793 0027376 278.0284 238.7881  1.00278641 70630
JCSAT-2A                
1 27399U 02015A   21018.42712337 -.00000256  00000-0  00000-0 0  9993
2 27399   3.4083  83.5800 0002887 343.5918 348.2928  1.00268100 69089
ASTRA 3A                
1 27400U 02015B   21018.44991407 -.00000205  00000-0  00000-0 0  9999
2 27400   6.3462  62.3216 0001610 231.8816 259.0171  1.00274539 68913
NSS-7                   
1 27414U 02019A   21018.39449707 -.00000159  00000-0  00000-0 0  9991
2 27414   4.7175  75.2584 0002545 229.4276 295.3247  1.00271212 68757
DIRECTV 5 (TEMPO 1)     
1 27426U 02023A   21018.43727622 -.00000055  00000-0  00000-0 0  9994
2 27426   0.0191  63.7560 0003175 241.2040 220.3755  1.00272376 68433
INTELSAT 905 (IS-905)   
1 27438U 02027A   21018.39362471 -.00000185  00000-0  00000-0 0  9997
2 27438   1.7939  92.0970 0002615 210.5836 292.5248  1.00271437 31552
GALAXY 3C (G-3C)        
1 27445U 02030A   21015.22132785 -.00000157  00000-0  00000+0 0  9999
2 27445   0.0184 329.8045 0001662 357.7168 131.9657  1.00269928 68115
EUTELSAT 5 WEST A       
1 27460U 02035A   21018.32562139 -.00000042  00000-0  00000-0 0  9999
2 27460   1.0709  94.8851 0006036 204.9417 290.3207  1.00273006 67808
METEOSAT-8 (MSG-1)      
1 27509U 02040B   21018.21368740  .00000133  00000-0  00000-0 0  9999
2 27509   7.1046  53.1828 0000653 181.6775   1.4355  1.00279310 67441
INTELSAT 906 (IS-906)   
1 27513U 02041A   21018.41124640  .00000015  00000-0  00000-0 0  9995
2 27513   0.7994  96.6726 0003151 206.8881  26.6403  1.00271774 67214
HISPASAT 30W-4          
1 27528U 02044A   21018.46094772  .00000117  00000-0  00000-0 0  9994
2 27528   1.5884  92.0064 0004027 215.6923 193.2902  1.00275379 23166
TDRS 10                 
1 27566U 02055A   21018.72331181  .00000089  00000-0  00000+0 0  9992
2 27566   7.2809  52.6198 0009570 277.1028 237.9769  1.00265440 66415
NSS-6                   
1 27603U 02057A   21018.44085234  .00000109  00000-0  00000-0 0  9994
2 27603   0.3360  97.6079 0004193 195.0960 174.5415  1.00274147 66237
NIMIQ 2                 
1 27632U 02062A   21018.59566347 -.00000178  00000-0  00000+0 0  9993
2 27632   4.8331  74.3852 0007589 287.6266 239.5210  1.00272174 66059
USA 167                 
1 27691U 03008A   21018.47109420  .00000053  00000-0  00000-0 0  9993
2 27691   7.0505  57.7010 0002126 327.2820 132.6899  1.00269007 13141
USA 169 (MILSTAR-2 4)   
1 27711U 03012A   21018.41295903 -.00000196  00000-0  00000-0 0  9996
2 27711   9.3667  43.4798 0002709 244.6248 130.7226  1.00271601 13142
GALAXY 12 (G-12)        
1 27715U 03013B   21018.47171144  .00000058  00000-0  00000-0 0  9993
2 27715   2.0086  90.6837 0001822 218.1617 210.0356  1.00272725 32280
ASIASAT 4               
1 27718U 03014A   21018.31646767  .00000154  00000-0  00000-0 0  9995
2 27718   0.0155  80.7772 0002392 244.4121 304.8397  1.00272807 25483
HELLAS-SAT 2            
1 27811U 03020A   21018.44538536 -.00000150  00000-0  00000-0 0  9991
2 27811   2.4273  90.0052 0002999 216.0225 237.1397  1.00271398 23033
THURAYA-2               
1 27825U 03026A   21018.69432748  .00000128  00000-0  00000+0 0  9990
2 27825   6.1397  33.5583 0005019 263.6566 115.0364  1.00273500 64534
OPTUS C1                
1 27831U 03028B   21018.41566883 -.00000150  00000-0  00000-0 0  9994
2 27831   1.9347  92.0527 0005586 202.9654 128.3402  1.00273004 33243
GALAXY 23 (G-23)        
1 27854U 03034A   21018.47499976  .00000015  00000-0  00000-0 0  9999
2 27854   0.0091 273.1792 0002821  26.4751 228.4311  1.00269667 63936
USA 170                 
1 27875U 03040A   21018.25482734 -.00000274  00000-0  00000-0 0  9997
2 27875   6.3195  63.1669 0001167 221.2007 242.9267  1.00270262 13157
GALAXY 13 (HORIZONS 1)  
1 27954U 03044A   21018.47260483  .00000050  00000-0  00000-0 0  9999
2 27954   0.0275  84.0496 0002302 100.4415 336.6895  1.00268800 26762
YAMAL 202               
1 28089U 03053A   21018.50284427 -.00000079  00000-0  00000-0 0  9999
2 28089   1.3659  93.3121 0002561 201.0955 168.1859  1.00271890 62877
UFO 11 (USA 174)        
1 28117U 03057A   21017.98287087 -.00000103  00000-0  00000-0 0  9999
2 28117   6.3084  37.7047 0004355 305.2771 203.7613  1.00271090 62631
USA 176 (DSP 22)        
1 28158U 04004A   21018.06230166 -.00000221  00000-0  00000-0 0  9994
2 28158   9.4336  38.0789 0000395 239.1845 310.2186  1.00273084 13117
ABS-4 (MOBISAT-1)       
1 28184U 04007A   21018.54007615  .00000041  00000-0  00000+0 0  9998
2 28184   1.0489  94.6482 0004984 209.4627  69.5057  1.00275017 61771
EUTELSAT 7A             
1 28187U 04008A   21018.45037338 -.00000144  00000-0  00000-0 0  9993
2 28187   0.8429  91.1756 0005095 194.5890 268.6566  0.99845181 61545
DIRECTV 7S              
1 28238U 04016A   21014.64255662 -.00000041  00000-0  00000+0 0  9993
2 28238   0.0424  84.2633 0002127 249.7280 253.7068  1.00464380 61201
AMC-11 (GE-11)          
1 28252U 04017A   21018.46972727  .00000070  00000-0  00000-0 0  9994
2 28252   0.0381 302.0397 0002778   9.4313 204.7019  1.00272334 61070
INTELSAT 10-02          
1 28358U 04022A   21018.39285403 -.00000010  00000-0  00000-0 0  9992
2 28358   0.0639 263.1467 0002533  46.4714 308.8224  1.00272699 60799
ANIK F2                 
1 28378U 04027A   21018.66318420 -.00000048  00000-0  00000+0 0  9995
2 28378   0.0127 338.2554 0000131 329.7534 297.9255  1.00273249 60540
AMC-15                  
1 28446U 04041A   21018.43939113 -.00000088  00000-0  00000-0 0  9995
2 28446   0.0164  12.6585 0002821 294.8831 223.6238  1.00272415 59510
AMC-16                  
1 28472U 04048A   21018.45037356 -.00000205  00000-0  00000-0 0  9992
2 28472   0.0477 289.7459 0002723  12.3454 253.0858  1.00271191 58916
NSS-10 (AMC-12)         
1 28526U 05003A   21018.39100764 -.00000251  00000-0  00000-0 0  9992
2 28526   1.5293  92.6102 0002941 197.9732 290.7142  1.00270785 33347
XTAR-EUR                
1 28542U 05005A   21017.59374834  .00000149  00000-0  00000-0 0  9999
2 28542   0.0109  80.8210 0002104 221.6182  57.5137  1.00270876 58373
XM-3 (RHYTHM)           
1 28626U 05008A   21018.45037366 -.00000204  00000-0  00000-0 0  9990
2 28626   0.0216  69.5243 0000462  23.5572 102.0460  1.00266686 22811
INMARSAT 4-F1           
1 28628U 05009A   21018.35528164 -.00000261  00000-0  00000-0 0  9996
2 28628   3.2831  29.4277 0002651 272.7331  87.1857  1.00271837 57855
APSTAR 6                
1 28638U 05012A   21018.66109053  .00000031  00000-0  00000+0 0  9990
2 28638   2.3266  91.6423 0011486 244.3131 257.4902  0.98570127 82593
DIRECTV 8               
1 28659U 05019A   21018.43212306  .00000002  00000-0  00000-0 0  9990
2 28659   0.0308 237.2229 0002878  64.9053 212.4007  1.00272788 57319
GALAXY 28 (G-28)        
1 28702U 05022A   21018.44890253 -.00000184  00000-0  00000-0 0  9999
2 28702   0.0141  45.2737 0001918 275.4143 229.9736  1.00269330 32221
EXPRESS-AM3             
1 28707U 05023A   21018.47693516  .00000123  00000-0  00000-0 0  9993
2 28707   2.3362  88.0482 0003121 258.8740 336.3164  0.99826813 57029
THAICOM 4               
1 28786U 05028A   21018.42232538 -.00000362  00000-0  00000-0 0  9999
2 28786   0.0180  54.3752 0002513 243.7816  91.3955  1.00270669 32446
GALAXY 14 (G-14)        
1 28790U 05030A   21018.47453281  .00000038  00000-0  00000-0 0  9991
2 28790   0.0231  67.7442 0000099 160.1512 295.9890  1.00273503 56507
ANIK F1R                
1 28868U 05036A   21018.66423104 -.00000072  00000-0  00000+0 0  9993
2 28868   0.0120  11.9689 0002016 327.6161 270.4943  1.00271433 56344
GALAXY 15 (G-15)        
1 28884U 05041A   21018.46876059  .00000080  00000-0  00000-0 0  9995
2 28884   0.0052 306.5714 0001792 346.6784 220.5672  1.00271613 55861
SYRACUSE 3A             
1 28885U 05041B   21018.37063494  .00000129  00000-0  00000-0 0  9991
2 28885   0.0284  86.9899 0002903 216.2227 355.1809  1.00273147 55930
INMARSAT 4-F2           
1 28899U 05044A   21018.41124640  .00000011  00000-0  00000-0 0  9995
2 28899   3.1470  32.1247 0002691 268.4867  29.3287  1.00271981 55708
TELKOM 2                
1 28902U 05046A   21018.41668639 -.00000138  00000-0  00000-0 0  9994
2 28902   0.0233  82.1403 0000760 354.3850 348.5119  1.00271392 55624
SPACEWAY 2              
1 28903U 05046B   21018.46387362  .00000105  00000-0  00000-0 0  9994
2 28903   0.6973  92.9766 0000225 288.9003 124.2805  1.00272354 31535
METEOSAT-9 (MSG-2)      
1 28912U 05049B   21018.32736610  .00000015  00000-0  00000-0 0  9996
2 28912   4.8856  69.2046 0001072 258.0496 271.7921  1.00273416 55223
EUTELSAT 174A           
1 28924U 05052A   21018.43064247  .00000011  00000-0  00000-0 0  9991
2 28924   0.0608  28.7545 0006101 271.5925 146.7060  1.00273132 32526
ECHOSTAR 10             
1 28935U 06003A   21018.43720949 -.00000054  00000-0  00000-0 0  9996
2 28935   0.0403 294.6401 0001083   5.5820 225.0183  1.00270886 54668
